SENTINEL-3B             
1 43437U 18039A   25144.45966007  .00000110  00000+0  63619-4 0  9995
2 43437  98.6306 212.5032 0000983  73.5358 286.5930 14.26734067368696
GAOFEN-5 01             
1 43461U 18043A   25144.44125421  .00000340  00000+0  80721-4 0  9991
2 43461  98.4047 104.2911 0001627 159.1997 200.9269 14.60146413374953
GAOFEN-6                
1 43484U 18048A   25144.84502993  .00000705  00000+0  10821-3 0  9996
2 43484  97.8235 215.5703 0012452 356.6769   3.4356 14.76527977376088
GAOFEN-11 01            
1 43585U 18063A   25144.85159280  .00009678  00000+0  21906-3 0  9997
2 43585  97.1810 210.0873 0004967 332.6075  27.4910 15.43319475380237
ICESAT-2                
1 43613U 18070A   25144.53774060  .00002781  00000+0  10079-3 0  9998
2 43613  91.9897 186.4156 0001634 214.0426 146.0719 15.28311316373109
HYSIS                   
1 43719U 18096A   25144.84786606  .00001141  20620-9  15614-3 0  9995
2 43719  98.0313 208.4868 0000741  77.4621 282.6672 14.78597551350266
KAZSTSAT                
1 43783U 18099AB  25144.66763904  .00001744  00000+0  14981-3 0  9990
2 43783  97.4761 188.3251 0004810 267.7201  92.3472 14.98665532353093
SAUDISAT 5A             
1 43831U 18102A   25144.83317941  .00004383  00000+0  18948-3 0  9993
2 43831  97.3591 209.0125 0012368  69.6293 290.6271 15.22913421356471
SAUDISAT 5B             
1 43833U 18102C   25144.81187919  .00004292  00000+0  18313-3 0  9998
2 43833  97.3671 211.3779 0013140  72.1290 288.1379 15.23365652356578
GAOFEN-10R              
1 44622U 19066A   25144.88408688  .00001211  00000+0  15714-3 0  9991
2 44622  98.0041  91.9709 0005071 339.6212  20.4798 14.82619041304830
CARTOSAT-3              
1 44804U 19081A   25144.82112412  .00003599  00000+0  17399-3 0  9993
2 44804  97.4822 206.5808 0014861  72.6746 287.6113 15.19165928304456
GAOFEN-12 01            
1 44819U 19082A   25144.86357174  .00000401  00000+0  59129-4 0  9997
2 44819  97.8138 156.4060 0002845 156.2231 203.9113 14.80382132296632
CSG-1                   
1 44873U 19092A   25144.79833549  .00000456  00000+0  63865-4 0  9997
2 44873  97.8876 329.0360 0001541  87.4128 272.7261 14.82146789293941
NEMO-HD                 
1 46277U 20061F   25144.83519987  .00006972  00000+0  20251-3 0  9997
2 46277  97.2460 206.8807 0002036  66.8560 293.2899 15.35791498262216
