[
  {
    "OBJECT_NAME": "SENTINEL-3B",
    "OBJECT_ID": "2018-039A",
    "EPOCH": "2025-05-24T11:01:54.630048",
    "MEAN_MOTION": 14.26734067,
    "ECCENTRICITY": 9.83e-05,
    "INCLINATION": 98.6306,
    "RA_OF_ASC_NODE": 212.5032,
    "ARG_OF_PERICENTER": 73.5358,
    "MEAN_ANOMALY": 286.593,
    "EPHEMERIS_TYPE": 0,
    "CLASSIFICATION_TYPE": "U",
    "NORAD_CAT_ID": 43437,
    "ELEMENT_SET_NO": 999,
    "REV_AT_EPOCH": 36869,
    "BSTAR": 6.3619e-05,
    "MEAN_MOTION_DOT": 1.1e-06,
    "MEAN_MOTION_DDOT": 0
  },
  {
    "OBJECT_NAME": "GAOFEN-5 01",
    "OBJECT_ID": "2018-043A",
    "EPOCH": "2025-05-24T10:35:24.363744",
    "MEAN_MOTION": 14.60146413,
    "ECCENTRICITY": 0.0001627,
    "INCLINATION": 98.4047,
    "RA_OF_ASC_NODE": 104.2911,
    "ARG_OF_PERICENTER": 159.1997,
    "MEAN_ANOMALY": 200.9269,
    "EPHEMERIS_TYPE": 0,
    "CLASSIFICATION_TYPE": "U",
    "NORAD_CAT_ID": 43461,
    "ELEMENT_SET_NO": 999,
    "REV_AT_EPOCH": 37495,
    "BSTAR": 8.0721e-05,
    "MEAN_MOTION_DOT": 3.4e-06,
    "MEAN_MOTION_DDOT": 0
  },
  {
    "OBJECT_NAME": "GAOFEN-6",
    "OBJECT_ID": "2018-048A",
    "EPOCH": "2025-05-24T20:16:50.585952",
    "MEAN_MOTION": 14.76527977,
    "ECCENTRICITY": 0.0012452,
    "INCLINATION": 97.8235,
    "RA_OF_ASC_NODE": 215.5703,
    "ARG_OF_PERICENTER": 356.6769,
    "MEAN_ANOMALY": 3.4356,
    "EPHEMERIS_TYPE": 0,
    "CLASSIFICATION_TYPE": "U",
    "NORAD_CAT_ID": 43484,
    "ELEMENT_SET_NO": 999,
    "REV_AT_EPOCH": 37608,
    "BSTAR": 0.00010821,
    "MEAN_MOTION_DOT": 7.05e-06,
    "MEAN_MOTION_DDOT": 0
  },
  {
    "OBJECT_NAME": "GAOFEN-11 01",
    "OBJECT_ID": "2018-063A",
    "EPOCH": "2025-05-24T20:26:17.617920",
    "MEAN_MOTION": 15.43319475,
    "ECCENTRICITY": 0.0004967,
    "INCLINATION": 97.181,
    "RA_OF_ASC_NODE": 210.0873,
    "ARG_OF_PERICENTER": 332.6075,
    "MEAN_ANOMALY": 27.491,
    "EPHEMERIS_TYPE": 0,
    "CLASSIFICATION_TYPE": "U",
    "NORAD_CAT_ID": 43585,
    "ELEMENT_SET_NO": 999,
    "REV_AT_EPOCH": 38023,
    "BSTAR": 0.00021906,
    "MEAN_MOTION_DOT": 9.678e-05,
    "MEAN_MOTION_DDOT": 0
  },
  {
    "OBJECT_NAME": "ICESAT-2",
    "OBJECT_ID": "2018-070A",
    "EPOCH": "2025-05-24T12:54:20.787840",
    "MEAN_MOTION": 15.28311316,
    "ECCENTRICITY": 0.0001634,
    "INCLINATION": 91.9897,
    "RA_OF_ASC_NODE": 186.4156,
    "ARG_OF_PERICENTER": 214.0426,
    "MEAN_ANOMALY": 146.0719,
    "EPHEMERIS_TYPE": 0,
    "CLASSIFICATION_TYPE": "U",
    "NORAD_CAT_ID": 43613,
    "ELEMENT_SET_NO": 999,
    "REV_AT_EPOCH": 37310,
    "BSTAR": 0.00010079,
    "MEAN_MOTION_DOT": 2.781e-05,
    "MEAN_MOTION_DDOT": 0
  },
  {
    "OBJECT_NAME": "HYSIS",
    "OBJECT_ID": "2018-096A",
    "EPOCH": "2025-05-24T20:20:55.627584",
    "MEAN_MOTION": 14.78597551,
    "ECCENTRICITY": 7.41e-05,
    "INCLINATION": 98.0313,
    "RA_OF_ASC_NODE": 208.4868,
    "ARG_OF_PERICENTER": 77.4621,
    "MEAN_ANOMALY": 282.6672,
    "EPHEMERIS_TYPE": 0,
    "CLASSIFICATION_TYPE": "U",
    "NORAD_CAT_ID": 43719,
    "ELEMENT_SET_NO": 999,
    "REV_AT_EPOCH": 35026,
    "BSTAR": 0.00015614,
    "MEAN_MOTION_DOT": 1.141e-05,
    "MEAN_MOTION_DDOT": 2.062e-10
  },
  {
    "OBJECT_NAME": "KAZSTSAT",
    "OBJECT_ID": "2018-099AB",
    "EPOCH": "2025-05-24T16:01:24.013056",
    "MEAN_MOTION": 14.98665532,
    "ECCENTRICITY": 0.000481,
    "INCLINATION": 97.4761,
    "RA_OF_ASC_NODE": 188.3251,
    "ARG_OF_PERICENTER": 267.7201,
    "MEAN_ANOMALY": 92.3472,
    "EPHEMERIS_TYPE": 0,
    "CLASSIFICATION_TYPE": "U",
    "NORAD_CAT_ID": 43783,
    "ELEMENT_SET_NO": 999,
    "REV_AT_EPOCH": 35309,
    "BSTAR": 0.00014981,
    "MEAN_MOTION_DOT": 1.744e-05,
    "MEAN_MOTION_DDOT": 0
  },
  {
    "OBJECT_NAME": "SAUDISAT 5A",
    "OBJECT_ID": "2018-102A",
    "EPOCH": "2025-05-24T19:59:46.701024",
    "MEAN_MOTION": 15.22913421,
    "ECCENTRICITY": 0.0012368,
    "INCLINATION": 97.3591,
    "RA_OF_ASC_NODE": 209.0125,
    "ARG_OF_PERICENTER": 69.6293,
    "MEAN_ANOMALY": 290.6271,
    "EPHEMERIS_TYPE": 0,
    "CLASSIFICATION_TYPE": "U",
    "NORAD_CAT_ID": 43831,
    "ELEMENT_SET_NO": 999,
    "REV_AT_EPOCH": 35647,
    "BSTAR": 0.00018948,
    "MEAN_MOTION_DOT": 4.383e-05,
    "MEAN_MOTION_DDOT": 0
  },
  {
    "OBJECT_NAME": "SAUDISAT 5B",
    "OBJECT_ID": "2018-102C",
    "EPOCH": "2025-05-24T19:29:06.362016",
    "MEAN_MOTION": 15.23365652,
    "ECCENTRICITY": 0.001314,
    "INCLINATION": 97.3671,
    "RA_OF_ASC_NODE": 211.3779,
    "ARG_OF_PERICENTER": 72.129,
    "MEAN_ANOMALY": 288.1379,
    "EPHEMERIS_TYPE": 0,
    "CLASSIFICATION_TYPE": "U",
    "NORAD_CAT_ID": 43833,
    "ELEMENT_SET_NO": 999,
    "REV_AT_EPOCH": 35657,
    "BSTAR": 0.00018313,
    "MEAN_MOTION_DOT": 4.292e-05,
    "MEAN_MOTION_DDOT": 0
  },
  {
    "OBJECT_NAME": "GAOFEN-10R",
    "OBJECT_ID": "2019-066A",
    "EPOCH": "2025-05-24T21:13:05.106432",
    "MEAN_MOTION": 14.82619041,
    "ECCENTRICITY": 0.0005071,
    "INCLINATION": 98.0041,
    "RA_OF_ASC_NODE": 91.9709,
    "ARG_OF_PERICENTER": 339.6212,
    "MEAN_ANOMALY": 20.4798,
    "EPHEMERIS_TYPE": 0,
    "CLASSIFICATION_TYPE": "U",
    "NORAD_CAT_ID": 44622,
    "ELEMENT_SET_NO": 999,
    "REV_AT_EPOCH": 30483,
    "BSTAR": 0.00015714,
    "MEAN_MOTION_DOT": 1.211e-05,
    "MEAN_MOTION_DDOT": 0
  },
  {
    "OBJECT_NAME": "CARTOSAT-3",
    "OBJECT_ID": "2019-081A",
    "EPOCH": "2025-05-24T19:42:25.123968",
    "MEAN_MOTION": 15.19165928,
    "ECCENTRICITY": 0.0014861,
    "INCLINATION": 97.4822,
    "RA_OF_ASC_NODE": 206.5808,
    "ARG_OF_PERICENTER": 72.6746,
    "MEAN_ANOMALY": 287.6113,
    "EPHEMERIS_TYPE": 0,
    "CLASSIFICATION_TYPE": "U",
    "NORAD_CAT_ID": 44804,
    "ELEMENT_SET_NO": 999,
    "REV_AT_EPOCH": 30445,
    "BSTAR": 0.00017399,
    "MEAN_MOTION_DOT": 3.599e-05,
    "MEAN_MOTION_DDOT": 0
  },
  {
    "OBJECT_NAME": "GAOFEN-12 01",
    "OBJECT_ID": "2019-082A",
    "EPOCH": "2025-05-24T20:43:32.598336",
    "MEAN_MOTION": 14.80382132,
    "ECCENTRICITY": 0.0002845,
    "INCLINATION": 97.8138,
    "RA_OF_ASC_NODE": 156.406,
    "ARG_OF_PERICENTER": 156.2231,
    "MEAN_ANOMALY": 203.9113,
    "EPHEMERIS_TYPE": 0,
    "CLASSIFICATION_TYPE": "U",
    "NORAD_CAT_ID": 44819,
    "ELEMENT_SET_NO": 999,
    "REV_AT_EPOCH": 29663,
    "BSTAR": 5.9129e-05,
    "MEAN_MOTION_DOT": 4.01e-06,
    "MEAN_MOTION_DDOT": 0
  },
  {
    "OBJECT_NAME": "CSG-1",
    "OBJECT_ID": "2019-092A",
    "EPOCH": "2025-05-24T19:09:36.186336",
    "MEAN_MOTION": 14.82146789,
    "ECCENTRICITY": 0.0001541,
    "INCLINATION": 97.8876,
    "RA_OF_ASC_NODE": 329.036,
    "ARG_OF_PERICENTER": 87.4128,
    "MEAN_ANOMALY": 272.7261,
    "EPHEMERIS_TYPE": 0,
    "CLASSIFICATION_TYPE": "U",
    "NORAD_CAT_ID": 44873,
    "ELEMENT_SET_NO": 999,
    "REV_AT_EPOCH": 29394,
    "BSTAR": 6.3865e-05,
    "MEAN_MOTION_DOT": 4.56e-06,
    "MEAN_MOTION_DDOT": 0
  },
  {
    "OBJECT_NAME": "NEMO-HD",
    "OBJECT_ID": "2020-061F",
    "EPOCH": "2025-05-24T20:02:41.268768",
    "MEAN_MOTION": 15.35791498,
    "ECCENTRICITY": 0.0002036,
    "INCLINATION": 97.246,
    "RA_OF_ASC_NODE": 206.8807,
    "ARG_OF_PERICENTER": 66.856,
    "MEAN_ANOMALY": 293.2899,
    "EPHEMERIS_TYPE": 0,
    "CLASSIFICATION_TYPE": "U",
    "NORAD_CAT_ID": 46277,
    "ELEMENT_SET_NO": 999,
    "REV_AT_EPOCH": 26221,
    "BSTAR": 0.00020251,
    "MEAN_MOTION_DOT": 6.972e-05,
    "MEAN_MOTION_DDOT": 0
  }
]